NORAD_CAT_ID,OBJECT_NAME,OBJECT_TYPE,EPOCH,MEAN_MOTION,ECCENTRICITY,INCLINATION,RA_OF_ASC_NODE,ARG_OF_PERICENTER,MEAN_ANOMALY,BSTAR,MEAN_MOTION_DOT,MEAN_MOTION_DDOT,TLE_LINE0,TLE_LINE1,TLE_LINE2,SEMIMAJOR_AXIS,PERIOD,APOGEE,PERIGEE,DECAYED
51758.0,STARLINK-3458,PAYLOAD,2022-05-27 22:00:01,15.30808389,0.0001428,53.218,33.1367,72.9146,220.3573,-0.021182,-0.0059802,0.0,0 STARLINK-3458,1 51758U 22016AW  22147.91668981 -.00598020  00000-0 -21182-1 0  9992,2 51758  53.2180  33.1367 0001428  72.9146 220.3573 15.30808389  1305,6851.536,94.068,474.38,472.423,0.0
51758.0,STARLINK-3458,PAYLOAD,2022-05-28 14:00:01,15.29875133,0.0001341999999999,53.2174,30.0488,53.5786,314.5428,-0.02638,-0.00713905,0.0,0 STARLINK-3458,1 51758U 22016AW  22148.58334491 -.00713905  00000-0 -26380-1 0  9998,2 51758  53.2174  30.0488 0001342  53.5786 314.5428 15.29875133 16331,6854.321999999999,94.125,477.107,475.267,0.0
51758.0,STARLINK-3458,PAYLOAD,2022-05-28 20:14:55,15.3076119,3.13e-05,53.2188,28.8307,240.6544,119.4427,-0.0065968999999999,-0.00194075,0.0,0 STARLINK-3458,1 51758U 22016AW  22148.84370055 -.00194075  00000-0 -65969-2 0  9991,2 51758  53.2188  28.8307 0000313 240.6544 119.4427 15.30761190 16373,6851.677,94.071,473.756,473.328,0.0
51758.0,STARLINK-3458,PAYLOAD,2022-05-29 06:00:02,15.28857215,0.0001349,53.2173,26.9667,56.3482,24.3434,-0.027328,-0.00724692,0.0,0 STARLINK-3458,1 51758U 22016AW  22149.25002315 -.00724692  00000-0 -27328-1 0  9998,2 51758  53.2173  26.9667 0001349  56.3482  24.3434 15.28857215 16438,6857.364000000001,94.188,480.154,478.304,0.0
51758.0,STARLINK-3458,PAYLOAD,2022-05-29 14:00:01,15.28237663,0.0001409999999999,53.2174,25.4234,46.773,69.2571,-0.022264,-0.0058153999999999,0.0,0 STARLINK-3458,1 51758U 22016AW  22149.58334491 -.00581540  00000-0 -22264-1 0  9994,2 51758  53.2174  25.4234 0001410  46.7730  69.2571 15.28237663  1300,6859.218000000003,94.226,482.05,480.115,0.0
51758.0,STARLINK-3458,PAYLOAD,2022-05-29 21:21:20,15.29158463,9.63e-05,53.2186,23.9949,56.9163,303.1931,-0.0074703999999999,-0.00208703,0.0,0 STARLINK-3458,1 51758U 22016AW  22149.88981581 -.00208703  00000-0 -74704-2 0  9999,2 51758  53.2186  23.9949 0000963  56.9163 303.1931 15.29158463 16536,6856.464,94.169,478.989,477.668,0.0
51758.0,STARLINK-3458,PAYLOAD,2022-05-30 06:00:00,15.27327416,0.0001460999999999,53.2173,22.3503,62.13,122.6646,-0.028659,-0.00725089,0.0,0 STARLINK-3458,1 51758U 22016AW  22150.25001157 -.00725089  00000-0 -28659-1 0  9992,2 51758  53.2173  22.3503 0001461  62.1300 122.6646 15.27327416 16583,6861.943,94.282,484.81,482.805,0.0
51758.0,STARLINK-3458,PAYLOAD,2022-05-30 14:00:01,15.26817754,0.0001574,53.2174,20.8125,55.2725,163.0194,-0.029143,-0.00725909,0.0,0 STARLINK-3458,1 51758U 22016AW  22150.58334491 -.00725909  00000-0 -29143-1 0  9998,2 51758  53.2174  20.8125 0001574  55.2725 163.0194 15.26817754  1305,6863.469,94.314,486.415,484.254,0.0
51758.0,STARLINK-3458,PAYLOAD,2022-05-30 22:00:00,15.26306218,0.0001646,53.2175,19.2792,51.9068,199.2685,-0.029486,-0.00723301,0.0,0 STARLINK-3458,1 51758U 22016AW  22150.91667824 -.00723301  00000-0 -29486-1 0  9998,2 51758  53.2175  19.2792 0001646  51.9068 199.2685 15.26306218  1305,6865.003000000002,94.345,487.99800000000016,485.73800000000006,0.0
51758.0,STARLINK-3458,PAYLOAD,2022-05-31 06:00:02,15.257089,0.0001393,53.2171,17.743,55.047,228.5122,-0.024935,-0.00601574,0.0,0 STARLINK-3458,1 51758U 22016AW  22151.25002315 -.00601574  00000-0 -24935-1 0  9995,2 51758  53.2171  17.7430 0001393  55.0470 228.5122 15.25708900 16732,6866.795,94.382,489.616,487.703,0.0
51758.0,STARLINK-3458,PAYLOAD,2022-05-31 14:12:21,15.26763969,0.0004883,53.2177,16.1543,69.1316,291.0206,-0.0080118,-0.00208143,0.0,0 STARLINK-3458,1 51758U 22016AW  22151.59191026 -.00208143  00000-0 -80118-2 0  9991,2 51758  53.2177  16.1543 0004883  69.1316 291.0206 15.26763969 16799,6863.630999999999,94.317,488.847,482.144,0.0
51758.0,STARLINK-3458,PAYLOAD,2022-05-31 22:00:00,15.24679443,0.0001281,53.2176,14.6791,59.903,286.3018,-0.02518,-0.00589699,0.0,0 STARLINK-3458,1 51758U 22016AW  22151.91667824 -.00589699  00000-0 -25180-1 0  9996,2 51758  53.2176  14.6791 0001281  59.9030 286.3018 15.24679443 16839,6869.885,94.446,492.63,490.87,0.0
51758.0,STARLINK-3458,PAYLOAD,2022-05-31 22:04:16,15.26152726,0.0003408,53.2171,14.6492,68.1497,291.9865,-0.0076358999999999,-0.00195046,0.0,0 STARLINK-3458,1 51758U 22016AW  22151.91963241 -.00195046  00000-0 -76359-2 0  9992,2 51758  53.2171  14.6492 0003408  68.1497 291.9865 15.26152726 16849,6865.4630000000025,94.355,489.668,484.98800000000006,0.0
51758.0,STARLINK-3458,PAYLOAD,2022-06-01 06:00:00,15.24268109,0.0001246,53.2174,13.1498,66.1319,310.4506,-0.031496,-0.00726231,0.0,0 STARLINK-3458,1 51758U 22016AW  22152.25001157 -.00726231  00000-0 -31496-1 0  9997,2 51758  53.2174  13.1498 0001246  66.1319 310.4506 15.24268109 16896,6871.121,94.472,493.842,492.13,0.0
51758.0,STARLINK-3458,PAYLOAD,2022-06-01 20:00:01,15.23374288,0.0001458,53.2175,10.4749,53.224,285.1412,-0.03221,-0.00723319,0.0,0 STARLINK-3458,1 51758U 22016AW  22152.83334491 -.00723319  00000-0 -32210-1 0  9990,2 51758  53.2175  10.4749 0001458  53.2240 285.1412 15.23374288  1300,6873.808000000001,94.527,496.676,494.671,0.0
51758.0,STARLINK-3458,PAYLOAD,2022-06-02 21:18:43,15.23159836,0.0002637,53.2201,5.6284,48.7873,311.3353,-0.0085492,-0.00199474,0.0,0 STARLINK-3458,1 51758U 22016AW  22153.88799942 -.00199474  00000-0 -85492-2 0  9992,2 51758  53.2201   5.6284 0002637  48.7873 311.3353 15.23159836 17146,6874.454000000002,94.54,498.131,494.506,0.0
51758.0,STARLINK-3458,PAYLOAD,2022-06-03 00:28:01,15.22855243,0.0002867,53.2201,5.0277,39.1143,321.0062,-0.0093119,-0.00214848,0.0,0 STARLINK-3458,1 51758U 22016AW  22154.01946420 -.00214848  00000-0 -93119-2 0  9991,2 51758  53.2201   5.0277 0002867  39.1143 321.0062 15.22855243 17162,6875.37,94.559,499.206,495.264,0.0
51758.0,STARLINK-3458,PAYLOAD,2022-06-03 06:46:22,15.22484018,0.0001916,53.2184,3.8267,59.3236,300.7951,-0.0090516,-0.00206771,0.0,0 STARLINK-3458,1 51758U 22016AW  22154.28220917 -.00206771  00000-0 -90516-2 0  9990,2 51758  53.2184   3.8267 0001916  59.3236 300.7951 15.22484018 17202,6876.488,94.582,499.67,497.035,0.0
51758.0,STARLINK-3458,PAYLOAD,2022-06-03 17:48:43,15.2189321,0.000143,53.2153,1.7247,66.4562,293.6586,-0.0094279,-0.00211486,0.0,0 STARLINK-3458,1 51758U 22016AW  22154.74216879 -.00211486  00000-0 -94279-2 0  9992,2 51758  53.2153   1.7247 0001430  66.4562 293.6586 15.21893210 17273,6878.267,94.619,501.116,499.149,0.0
51758.0,STARLINK-3458,PAYLOAD,2022-06-04 00:07:28,15.21312434,0.0002183,53.2145,0.5245,98.097,262.0275,-0.008306,-0.001839,0.0,0 STARLINK-3458,1 51758U 22016AW  22155.00519096 -.00183900  00000-0 -83060-2 0  9994,2 51758  53.2145   0.5245 0002183  98.0970 262.0275 15.21312434 17313,6880.018,94.655,503.385,500.381,0.0
51758.0,STARLINK-3458,PAYLOAD,2022-06-04 04:51:34,15.21049536,0.0001766,53.2149,359.6237,154.2433,205.8653,-0.0093177,-0.00204108,0.0,0 STARLINK-3458,1 51758U 22016AW  22155.20248226 -.00204108  00000-0 -93177-2 0  9994,2 51758  53.2149 359.6237 0001766 154.2433 205.8653 15.21049536 17349,6880.811,94.671,503.891,501.46,0.0
51758.0,STARLINK-3458,PAYLOAD,2022-06-05 22:00:00,15.1712764,0.0001389,53.2177,351.8505,58.8327,319.4641,-0.03874,-0.00724281,0.0,0 STARLINK-3458,1 51758U 22016AW  22156.91667824 -.00724281  00000-0 -38740-1 0  9995,2 51758  53.2177 351.8505 0001389  58.8327 319.4641 15.17127640 17600,6892.6640000000025,94.916,515.486,513.571,0.0
51758.0,STARLINK-3458,PAYLOAD,2022-06-06 14:00:01,15.16106793,0.000134,53.2177,348.8251,63.764,356.4029,-0.039766,-0.00722133,0.0,0 STARLINK-3458,1 51758U 22016AW  22157.58334491 -.00722133  00000-0 -39766-1 0  9993,2 51758  53.2177 348.8251 0001340  63.7640 356.4029 15.16106793  1300,6895.757,94.98,518.547,516.698,0.0
51758.0,STARLINK-3458,PAYLOAD,2022-06-06 22:00:00,15.15596853,0.0001356,53.2177,347.3166,65.1477,15.0336,-0.040407,-0.00723084,0.0,0 STARLINK-3458,1 51758U 22016AW  22157.91667824 -.00723084  00000-0 -40407-1 0  9999,2 51758  53.2177 347.3166 0001356  65.1477  15.0336 15.15596853  1308,6897.304,95.012,520.104,518.234,0.0
51758.0,STARLINK-3458,PAYLOAD,2022-06-07 06:00:00,15.15086963,0.0001314,53.2176,345.8061,69.12100000000001,30.4636,-0.040987,-0.00722887,0.0,0 STARLINK-3458,1 51758U 22016AW  22158.25001157 -.00722887  00000-0 -40987-1 0  9991,2 51758  53.2176 345.8061 0001314  69.1210  30.4636 15.15086963 17809,6898.852,95.044,521.623,519.81,0.0
51758.0,STARLINK-3458,PAYLOAD,2022-06-07 14:00:01,15.14576687,0.0001463,53.2177,344.2982,61.8273,56.5472,-0.041537,-0.00722108,0.0,0 STARLINK-3458,1 51758U 22016AW  22158.58334491 -.00722108  00000-0 -41537-1 0  9995,2 51758  53.2177 344.2982 0001463  61.8273  56.5472 15.14576687  1309,6900.401,95.076,523.276,521.256,0.0
51758.0,STARLINK-3458,PAYLOAD,2022-06-07 22:00:00,15.14065293,0.0001483,53.2177,342.7933,61.7436,74.8074,-0.04203,-0.00720293,0.0,0 STARLINK-3458,1 51758U 22016AW  22158.91667824 -.00720293  00000-0 -42030-1 0  9993,2 51758  53.2177 342.7933 0001483  61.7436  74.8074 15.14065293  1307,6901.955,95.108,524.8430000000002,522.7959999999998,0.0
51758.0,STARLINK-3458,PAYLOAD,2022-06-08 06:00:02,15.13556826,0.0001388,53.2176,341.2863,72.8499,81.3286,-0.042763,-0.00722243,0.0,0 STARLINK-3458,1 51758U 22016AW  22159.25002315 -.00722243  00000-0 -42763-1 0  9999,2 51758  53.2176 341.2863 0001388  72.8499  81.3286 15.13556826 17950,6903.5,95.14,526.3240000000002,524.4069999999998,0.0
51758.0,STARLINK-3458,PAYLOAD,2022-06-08 14:00:01,15.13046627,0.0001483,53.2177,339.7822,67.3294,103.7374,-0.043362,-0.00721933,0.0,0 STARLINK-3458,1 51758U 22016AW  22159.58334491 -.00721933  00000-0 -43362-1 0  9999,2 51758  53.2177 339.7822 0001483  67.3294 103.7374 15.13046627  1308,6905.052,95.172,527.941,525.893,0.0
